1 27424U 02022A   12055.10417226  .00000443  00000-0  10849-3 0  2215
2 27424 098.2237 357.2325 0001318 084.9986 275.1355 14.57108639521758